OBJECT_NAME,OBJECT_ID,EPOCH,MEAN_MOTION,ECCENTRICITY,INCLINATION,RA_OF_ASC_NODE,ARG_OF_PERICENTER,MEAN_ANOMALY,EPHEMERIS_TYPE,CLASSIFICATION_TYPE,NORAD_CAT_ID,ELEMENT_SET_NO,REV_AT_EPOCH,BSTAR,MEAN_MOTION_DOT,MEAN_MOTION_DDOT
FENGYUN 3D,2017-072A,2026-07-17T05:45:38.674080,14.19745026,.00014387,99.0145,173.2087,10.6602,349.4604,0,U,43010,999,44925,.39359141E-4,.37E-6,0
NOAA 20 (JPSS-1),2017-073A,2026-07-17T07:27:00.488448,14.19516701,.00014699,98.7772,137.5063,122.2093,237.9226,0,U,43013,999,44874,.29161958E-4,.17E-6,0
GOES 17,2018-022A,2026-07-17T06:00:20.282400,1.00270891,.00005948,1.0124,85.2271,73.1972,137.2308,0,U,43226,999,3072,0,-.193E-5,0
SENTINEL-3B,2018-039A,2026-07-17T04:55:36.576480,14.26736730,.00011929,98.6235,265.3046,119.8366,240.2933,0,U,43437,999,42840,.38460351E-4,.49E-6,0
FENGYUN 2H,2018-050A,2026-07-17T03:48:38.629152,1.00266940,.00022866,3.1065,78.7191,134.5376,217.9838,0,U,43491,999,2973,0,-.138E-5,0
METOP-C,2018-087A,2026-07-15T13:47:48.761088,14.21519167,.0002216,98.6630,255.6574,93.2289,266.9142,0,U,43689,999,39886,.44045E-4,.53E-6,0
GEO-KOMPSAT-2A,2018-100A,2026-07-17T07:02:21.836256,1.00273453,.00022704,0.0319,166.8773,289.1001,72.9715,0,U,43823,999,2793,0,-.354E-5,0
METEOR-M2 2,2019-038A,2026-07-17T05:45:10.086912,14.24373699,.00006208,98.9159,185.9714,359.3522,0.7655,0,U,44387,999,36557,.12720131E-3,.248E-5,0
ARKTIKA-M 1,2021-016A,2026-07-14T09:46:38.558208,2.00611590,.7297332,63.2662,53.6722,270.0591,14.4994,0,U,47719,999,3933,0,-.301E-5,0
FENGYUN 3E,2021-062A,2026-07-17T06:59:06.671616,14.19906313,.0002164,98.7496,201.3646,35.4309,324.7011,0,U,49008,999,26085,.47509006E-4,.57E-6,0
GOES 18,2022-021A,2026-07-17T05:36:38.720736,1.00271760,.00004341,0.0129,125.1811,48.5879,68.4375,0,U,51850,999,689,0,.87E-6,0
NOAA 21 (JPSS-2),2022-150A,2026-07-17T06:31:58.137888,14.19541218,.00028637,98.7059,136.5562,101.0488,259.1010,0,U,54234,999,19081,.21153348E-4,.1E-7,0
METEOSAT-12 (MTG-I1),2022-170C,2026-07-17T06:25:40.353888,1.00268293,.0003893,0.7275,20.0995,81.5150,289.5425,0,U,54743,999,1328,0,-.19E-6,0
TIANMU-1 03,2023-039A,2026-07-17T07:23:53.610432,15.48079920,.0002397,97.5243,13.4770,20.3958,339.7388,0,U,55973,999,18549,.16377274E-3,.8485E-4,0
TIANMU-1 04,2023-039B,2026-07-17T06:51:35.671392,15.48708985,.00028238,97.5184,12.6097,4.6706,355.4570,0,U,55974,999,18550,.17903201E-3,.9493E-4,0
TIANMU-1 05,2023-039C,2026-07-17T06:58:19.377120,15.48005229,.00027819,97.5229,13.0620,40.2726,319.8729,0,U,55975,999,18547,.1639812E-3,.8474E-4,0
TIANMU-1 06,2023-039D,2026-07-17T06:59:15.621792,15.48604508,.00028605,97.5236,13.7291,30.8210,329.3208,0,U,55976,999,18550,.1663564E-3,.8781E-4,0
FENGYUN 3G,2023-055A,2026-07-17T06:39:55.423584,15.53849188,.00069839,49.9910,190.8243,65.7210,294.4486,0,U,56232,999,18468,.21254545E-3,.13508E-3,0
METEOR-M2 3,2023-091A,2026-07-17T07:28:10.257312,14.24049026,.00051402,98.6067,252.6705,85.5344,274.6423,0,U,57166,999,15880,.11755191E-4,-.16E-6,0
TIANMU-1 07,2023-101A,2026-07-17T06:01:07.624416,15.30129513,.00036175,97.2573,248.2323,60.5079,299.6523,0,U,57399,999,16624,.1181721E-3,.3371E-4,0
TIANMU-1 08,2023-101B,2026-07-17T06:47:08.801664,15.30132879,.0004414,97.2562,248.0297,40.8223,319.3348,0,U,57400,999,16624,.1103107E-3,.3143E-4,0
TIANMU-1 09,2023-101C,2026-07-17T06:22:14.608704,15.30174400,.00042141,97.2519,247.4135,60.1656,300.0003,0,U,57401,999,16624,.11547818E-3,.3298E-4,0
TIANMU-1 10,2023-101D,2026-07-17T07:10:35.662368,15.30148415,.00054854,97.2599,248.5276,48.6347,311.5365,0,U,57402,999,16624,.11789486E-3,.3366E-4,0
FENGYUN 3F,2023-111A,2026-07-17T08:16:22.518912,14.19943623,.00012289,98.6824,267.7895,75.9011,284.2302,0,U,57490,999,15314,.23571492E-4,.7E-7,0
ARKTIKA-M 2,2023-198A,2026-07-15T04:12:00.091584,2.00608092,.69107365,63.2178,151.2342,267.3397,18.7345,0,U,58584,999,1888,0,.129E-5,0
TIANMU-1 11,2023-205A,2026-07-17T07:48:43.630272,15.27275699,.0006867,97.3441,219.4142,252.4312,107.6177,0,U,58645,999,14212,.1040721E-3,.2709E-4,0
TIANMU-1 12,2023-205B,2026-07-17T07:09:19.293408,15.27107645,.00059846,97.3430,219.1334,225.1494,134.9260,0,U,58646,999,14210,.10912864E-3,.2829E-4,0
TIANMU-1 13,2023-205C,2026-07-17T06:23:08.094624,15.27100135,.00060179,97.3457,219.3826,203.9725,156.1235,0,U,58647,999,14209,.10754802E-3,.2786E-4,0
TIANMU-1 14,2023-205D,2026-07-17T07:34:55.831008,15.27144320,.00066341,97.3394,218.5898,211.3560,148.7285,0,U,58648,999,14210,.1084941E-3,.2816E-4,0
TIANMU-1 19,2023-208A,2026-07-17T06:30:23.288832,15.31994458,.00047947,97.4531,314.7373,190.6699,169.4441,0,U,58660,999,14193,.14513714E-3,.4404E-4,0
