FENGYUN 3D              
1 43010U 17072A   26198.24003095  .00000037  00000+0  39359-4 0  9996
2 43010  99.0145 173.2087 0001438  10.6602 349.4604 14.19745026449250
NOAA 20 (JPSS-1)        
1 43013U 17073A   26198.31042232  .00000017  00000+0  29162-4 0  9993
2 43013  98.7772 137.5063 0001469 122.2093 237.9226 14.19516701448740
GOES 17                 
1 43226U 18022A   26198.25023475 -.00000193  00000+0  00000+0 0  9996
2 43226   1.0124  85.2271 0000594  73.1972 137.2308  1.00270891 30723
SENTINEL-3B             
1 43437U 18039A   26198.20528445  .00000049  00000+0  38460-4 0  9995
2 43437  98.6235 265.3046 0001192 119.8366 240.2933 14.26736730428409
FENGYUN 2H              
1 43491U 18050A   26198.15878043 -.00000138  00000+0  00000+0 0  9998
2 43491   3.1065  78.7191 0002286 134.5376 217.9838  1.00266940 29735
METOP-C                 
1 43689U 18087A   26196.57486992  .00000053  00000+0  44045-4 0  9996
2 43689  98.6630 255.6574 0002216  93.2289 266.9142 14.21519167398863
GEO-KOMPSAT-2A          
1 43823U 18100A   26198.29330829 -.00000354  00000+0  00000+0 0  9993
2 43823   0.0319 166.8773 0002270 289.1001  72.9715  1.00273453 27932
METEOR-M2 2             
1 44387U 19038A   26198.23970008  .00000248  00000+0  12720-3 0  9990
2 44387  98.9159 185.9714 0000620 359.3522   0.7655 14.24373699365578
ARKTIKA-M 1             
1 47719U 21016A   26195.40739072 -.00000301  00000+0  00000+0 0  9996
2 47719  63.2662  53.6722 7297332 270.0591  14.4994  2.00611590 39330
FENGYUN 3E              
1 49008U 21062A   26198.29104944  .00000057  00000+0  47509-4 0  9991
2 49008  98.7496 201.3646 0002164  35.4309 324.7011 14.19906313260851
GOES 18                 
1 51850U 22021A   26198.23378149  .00000087  00000+0  00000+0 0  9992
2 51850   0.0129 125.1811 0000434  48.5879  68.4375  1.00271760  6894
NOAA 21 (JPSS-2)        
1 54234U 22150A   26198.27220067  .00000001  00000+0  21153-4 0  9996
2 54234  98.7059 136.5562 0002863 101.0488 259.1010 14.19541218190810
METEOSAT-12 (MTG-I1)    
1 54743U 22170C   26198.26782817 -.00000019  00000+0  00000+0 0  9991
2 54743   0.7275  20.0995 0003893  81.5150 289.5425  1.00268293 13284
TIANMU-1 03             
1 55973U 23039A   26198.30825938  .00008485  00000+0  16377-3 0  9991
2 55973  97.5243  13.4770 0002397  20.3958 339.7388 15.48079920185494
TIANMU-1 04             
1 55974U 23039B   26198.28582953  .00009493  00000+0  17903-3 0  9992
2 55974  97.5184  12.6097 0002823   4.6706 355.4570 15.48708985185502
TIANMU-1 05             
1 55975U 23039C   26198.29050205  .00008474  00000+0  16398-3 0  9999
2 55975  97.5229  13.0620 0002781  40.2726 319.8729 15.48005229185478
TIANMU-1 06             
1 55976U 23039D   26198.29115303  .00008781  00000+0  16636-3 0  9997
2 55976  97.5236  13.7291 0002860  30.8210 329.3208 15.48604508185506
FENGYUN 3G              
1 56232U 23055A   26198.27772481  .00013508  00000+0  21255-3 0  9991
2 56232  49.9910 190.8243 0006983  65.7210 294.4486 15.53849188184682
METEOR-M2 3             
1 57166U 23091A   26198.31122983 -.00000016  00000+0  11755-4 0  9995
2 57166  98.6067 252.6705 0005140  85.5344 274.6423 14.24049026158801
TIANMU-1 07             
1 57399U 23101A   26198.25078269  .00003371  00000+0  11817-3 0  9999
2 57399  97.2573 248.2323 0003617  60.5079 299.6523 15.30129513166241
TIANMU-1 08             
1 57400U 23101B   26198.28274076  .00003143  00000+0  11031-3 0  9994
2 57400  97.2562 248.0297 0004414  40.8223 319.3348 15.30132879166242
TIANMU-1 09             
1 57401U 23101C   26198.26544686  .00003298  00000+0  11548-3 0  9994
2 57401  97.2519 247.4135 0004214  60.1656 300.0003 15.30174400166243
TIANMU-1 10             
1 57402U 23101D   26198.29902387  .00003366  00000+0  11789-3 0  9997
2 57402  97.2599 248.5276 0005485  48.6347 311.5365 15.30148415166244
FENGYUN 3F              
1 57490U 23111A   26198.34470508  .00000007  00000+0  23571-4 0  9998
2 57490  98.6824 267.7895 0001228  75.9011 284.2302 14.19943623153141
ARKTIKA-M 2             
1 58584U 23198A   26196.17500106  .00000129  00000+0  00000+0 0  9997
2 58584  63.2178 151.2342 6910736 267.3397  18.7345  2.00608092 18886
TIANMU-1 11             
1 58645U 23205A   26198.32550498  .00002709  00000+0  10407-3 0  9994
2 58645  97.3441 219.4142 0006867 252.4312 107.6177 15.27275699142129
TIANMU-1 12             
1 58646U 23205B   26198.29813997  .00002829  00000+0  10913-3 0  9992
2 58646  97.3430 219.1334 0005984 225.1494 134.9260 15.27107645142104
TIANMU-1 13             
1 58647U 23205C   26198.26606591  .00002786  00000+0  10755-3 0  9996
2 58647  97.3457 219.3826 0006017 203.9725 156.1235 15.27100135142094
TIANMU-1 14             
1 58648U 23205D   26198.31592397  .00002816  00000+0  10849-3 0  9999
2 58648  97.3394 218.5898 0006634 211.3560 148.7285 15.27144320142108
TIANMU-1 19             
1 58660U 23208A   26198.27110288  .00004404  00000+0  14514-3 0  9994
2 58660  97.4531 314.7373 0004794 190.6699 169.4441 15.31994458141934
